OBJECT_NAME,OBJECT_ID,EPOCH,MEAN_MOTION,ECCENTRICITY,INCLINATION,RA_OF_ASC_NODE,ARG_OF_PERICENTER,MEAN_ANOMALY,EPHEMERIS_TYPE,CLASSIFICATION_TYPE,NORAD_CAT_ID,ELEMENT_SET_NO,REV_AT_EPOCH,BSTAR,MEAN_MOTION_DOT,MEAN_MOTION_DDOT
COSMOS 2507 (RODNIK-S 13),2015-050A,2026-07-17T13:53:12.787872,12.42928355,.00089754,82.4901,60.7452,287.4844,72.5254,0,U,40920,999,49063,.15024478E-2,.218E-5,0
COSMOS 2508 (RODNIK-S 14),2015-050B,2026-07-17T14:44:45.957120,12.42915677,.00138409,82.4853,59.2162,321.3972,38.6118,0,U,40921,999,49062,.80088687E-3,.121E-5,0
COSMOS 2509 (RODNIK-S 15),2015-050C,2026-07-17T13:19:12.711072,12.42885211,.00145008,82.4862,59.3587,338.9934,21.0548,0,U,40922,999,49065,.95614034E-3,.142E-5,0
LINGQIAO VIDEO A,2015-057B,2026-07-17T15:15:26.804160,14.77428341,.00168739,97.6632,191.9385,165.0902,195.0810,0,U,40959,999,57990,.49307223E-4,.303E-5,0
LINGQIAO VIDEO B,2015-057C,2026-07-17T14:38:42.918144,14.77533030,.00170644,97.6596,193.0696,165.3021,194.8690,0,U,40960,999,57994,.4117341E-4,.246E-5,0
JILIN-1,2015-057D,2026-07-17T14:38:31.008768,14.78203302,.00174373,97.6521,196.4686,159.2274,200.9650,0,U,40961,999,58010,.54217755E-4,.345E-5,0
FOX-1A (AO-85),2015-058D,2026-07-17T09:37:01.217856,14.91095970,.01325376,64.7725,185.0785,44.9727,316.2027,0,U,40967,999,11807,.15191358E-3,.1604E-4,0
SINOD-D 1,2015-058E,2026-07-17T08:39:47.721600,14.96100252,.01212393,64.7739,164.4048,41.3410,319.6802,0,U,40968,999,12117,.22190289E-3,.2718E-4,0
ELEKTRO-L 2,2015-074A,2026-07-17T09:46:59.367648,1.00272043,.00010116,6.7681,70.1492,216.2851,141.0386,0,U,41105,999,3880,0,-.13E-5,0
DAMPE,2015-078A,2026-07-17T13:31:47.969760,15.30856811,.0011337,97.4558,204.1822,336.9535,23.1195,0,U,41173,999,58919,.23798378E-4,.632E-5,0
ORBCOMM FM110,2015-081D,2026-07-17T10:37:28.754688,14.58919619,.00036805,47.0002,218.3818,231.5677,128.4879,0,U,41182,999,56204,.67797952E-4,.149E-5,0
ORBCOMM FM112,2015-081F,2026-07-17T04:58:18.827904,14.58940112,.00035746,46.9984,128.2849,337.1225,22.9501,0,U,41184,999,56333,.88473059E-4,.247E-5,0
ORBCOMM FM113,2015-081G,2026-07-17T04:26:10.072320,14.58883148,.00021148,47.0001,128.7827,329.1270,30.9491,0,U,41185,999,56331,.58831565E-4,.107E-5,0
ORBCOMM FM108,2015-081J,2026-07-17T15:01:42.622464,14.58912397,.0002478,47.0057,38.2772,330.9581,29.1166,0,U,41187,999,56452,.81050879E-4,.212E-5,0
ORBCOMM FM117,2015-081K,2026-07-17T14:12:23.917536,14.58899370,.00029091,47.0020,37.0656,339.1196,20.9571,0,U,41188,999,56456,.78159805E-4,.198E-5,0
ORBCOMM FM116,2015-081L,2026-07-17T12:05:09.550464,14.58907713,.0001617,47.0016,127.2726,235.7302,124.3431,0,U,41189,999,56336,.62896632E-4,.126E-5,0
ZIYUAN 3-02 (ZY 3-02),2016-033A,2026-07-17T15:26:02.143968,15.21447873,.00143512,97.3824,273.8321,176.4040,183.7302,0,U,41556,999,56261,.11607244E-3,.2545E-4,0
CARTOSAT-2C,2016-040A,2026-07-17T14:55:03.515808,15.19277611,.00093719,97.4465,258.1779,37.7415,322.4475,0,U,41599,999,55833,.148048E-3,.3057E-4,0
LAPAN-A3,2016-040E,2026-07-17T14:30:55.793088,15.33286199,.00082545,97.1506,193.7571,265.5025,94.5275,0,U,41603,999,55947,.53027079E-4,.1632E-4,0
GAOFEN-3,2016-049A,2026-07-17T14:38:47.241600,14.42218609,.00017677,98.4012,205.9376,82.5761,277.5629,0,U,41727,999,52303,-.11691389E-4,-.82E-6,0
CAS-2T & KS-1Q,2016-066G,2026-07-17T03:49:43.427424,14.44772533,.03421437,98.3813,273.5527,38.8094,323.7141,0,U,41847,999,50912,.74643151E-4,.472E-5,0
YUNHAI-1 01,2016-068A,2026-07-17T14:49:58.738080,14.32723527,.00030292,98.5844,209.3428,340.8320,19.2750,0,U,41857,999,50618,.83253619E-4,.183E-5,0
RESOURCESAT-2A,2016-074A,2026-07-17T14:48:08.561664,14.21610237,.00022885,98.7520,271.8709,22.5020,337.6257,0,U,41877,999,49862,.21841755E-3,.435E-5,0
TANSAT,2016-081A,2026-07-17T14:37:47.347392,14.59972179,.00195618,98.5369,199.7681,212.3439,147.6562,0,U,41898,999,50906,.30050825E-4,.94E-6,0
